CCSDS_OMM_VERS = 2.0
CREATION_DATE  = 
ORIGINATOR     = 

OBJECT_NAME    = COSMOS 2058
OBJECT_ID      = 1990-010A
CENTER_NAME    = EARTH
REF_FRAME      = TEME
TIME_SYSTEM    = UTC
MEAN_ELEMENT_THEORY = SGP/SGP4

EPOCH          = 2026-03-20T08:58:04.793376
MEAN_MOTION    = 15.11408789
ECCENTRICITY   = .0007944
INCLINATION    = 82.4676
RA_OF_ASC_NODE = 36.8994
ARG_OF_PERICENTER = 306.0786
MEAN_ANOMALY   = 53.9708

EPHEMERIS_TYPE = 0
CLASSIFICATION_TYPE = U
NORAD_CAT_ID   = 20465
ELEMENT_SET_NO = 999
REV_AT_EPOCH   = 94385
BSTAR          = .20194E-3
MEAN_MOTION_DOT = .344E-4
MEAN_MOTION_DDOT = 0

CCSDS_OMM_VERS = 2.0
CREATION_DATE  = 
ORIGINATOR     = 

OBJECT_NAME    = SL-14 R/B
OBJECT_ID      = 1990-010B
CENTER_NAME    = EARTH
REF_FRAME      = TEME
TIME_SYSTEM    = UTC
MEAN_ELEMENT_THEORY = SGP/SGP4

EPOCH          = 2026-03-20T11:28:46.911072
MEAN_MOTION    = 14.83578063
ECCENTRICITY   = .00183278
INCLINATION    = 82.4987
RA_OF_ASC_NODE = 257.2514
ARG_OF_PERICENTER = 263.9518
MEAN_ANOMALY   = 95.9609

EPHEMERIS_TYPE = 0
CLASSIFICATION_TYPE = U
NORAD_CAT_ID   = 20466
ELEMENT_SET_NO = 999
REV_AT_EPOCH   = 93008
BSTAR          = .44651738E-4
MEAN_MOTION_DOT = .392E-5
MEAN_MOTION_DDOT = 0

CCSDS_OMM_VERS = 2.0
CREATION_DATE  = 
ORIGINATOR     = 

OBJECT_NAME    = SL-14 R/B
OBJECT_ID      = 1990-018B
CENTER_NAME    = EARTH
REF_FRAME      = TEME
TIME_SYSTEM    = UTC
MEAN_ELEMENT_THEORY = SGP/SGP4

EPOCH          = 2026-03-20T15:23:49.063776
MEAN_MOTION    = 14.82155847
ECCENTRICITY   = .00174275
INCLINATION    = 82.5224
RA_OF_ASC_NODE = 212.8541
ARG_OF_PERICENTER = 58.8080
MEAN_ANOMALY   = 301.4839

EPHEMERIS_TYPE = 0
CLASSIFICATION_TYPE = U
NORAD_CAT_ID   = 20511
ELEMENT_SET_NO = 999
REV_AT_EPOCH   = 92420
BSTAR          = .53067093E-4
MEAN_MOTION_DOT = .447E-5
MEAN_MOTION_DDOT = 0

CCSDS_OMM_VERS = 2.0
CREATION_DATE  = 
ORIGINATOR     = 

OBJECT_NAME    = HST
OBJECT_ID      = 1990-037B
CENTER_NAME    = EARTH
REF_FRAME      = TEME
TIME_SYSTEM    = UTC
MEAN_ELEMENT_THEORY = SGP/SGP4

EPOCH          = 2026-03-20T09:10:17.245920
MEAN_MOTION    = 15.29639663
ECCENTRICITY   = .0001527
INCLINATION    = 28.4724
RA_OF_ASC_NODE = 327.0513
ARG_OF_PERICENTER = 242.0595
MEAN_ANOMALY   = 117.9847

EPHEMERIS_TYPE = 0
CLASSIFICATION_TYPE = U
NORAD_CAT_ID   = 20580
ELEMENT_SET_NO = 999
REV_AT_EPOCH   = 77495
BSTAR          = .19089699E-3
MEAN_MOTION_DOT = .5871E-4
MEAN_MOTION_DDOT = 0

CCSDS_OMM_VERS = 2.0
CREATION_DATE  = 
ORIGINATOR     = 

OBJECT_NAME    = SL-16 R/B
OBJECT_ID      = 1990-046B
CENTER_NAME    = EARTH
REF_FRAME      = TEME
TIME_SYSTEM    = UTC
MEAN_ELEMENT_THEORY = SGP/SGP4

EPOCH          = 2026-03-20T05:31:36.326784
MEAN_MOTION    = 14.15012018
ECCENTRICITY   = .0016211
INCLINATION    = 70.9954
RA_OF_ASC_NODE = 275.7753
ARG_OF_PERICENTER = 285.6681
MEAN_ANOMALY   = 74.2653

EPHEMERIS_TYPE = 0
CLASSIFICATION_TYPE = U
NORAD_CAT_ID   = 20625
ELEMENT_SET_NO = 999
REV_AT_EPOCH   = 84988
BSTAR          = .62199E-4
MEAN_MOTION_DOT = .73E-6
MEAN_MOTION_DDOT = 0

CCSDS_OMM_VERS = 2.0
CREATION_DATE  = 
ORIGINATOR     = 

OBJECT_NAME    = COSMOS 2084
OBJECT_ID      = 1990-055A
CENTER_NAME    = EARTH
REF_FRAME      = TEME
TIME_SYSTEM    = UTC
MEAN_ELEMENT_THEORY = SGP/SGP4

EPOCH          = 2026-03-20T14:43:43.991040
MEAN_MOTION    = 15.05707002
ECCENTRICITY   = .00154248
INCLINATION    = 62.7889
RA_OF_ASC_NODE = 298.3185
ARG_OF_PERICENTER = 193.0258
MEAN_ANOMALY   = 167.0447

EPHEMERIS_TYPE = 0
CLASSIFICATION_TYPE = U
NORAD_CAT_ID   = 20663
ELEMENT_SET_NO = 999
REV_AT_EPOCH   = 93796
BSTAR          = .1460998E-3
MEAN_MOTION_DOT = .1925E-4
MEAN_MOTION_DDOT = 0

CCSDS_OMM_VERS = 2.0
CREATION_DATE  = 
ORIGINATOR     = 

OBJECT_NAME    = SL-6 R/B(2)
OBJECT_ID      = 1990-055D
CENTER_NAME    = EARTH
REF_FRAME      = TEME
TIME_SYSTEM    = UTC
MEAN_ELEMENT_THEORY = SGP/SGP4

EPOCH          = 2026-03-20T09:52:59.766240
MEAN_MOTION    = 15.03644129
ECCENTRICITY   = .00264812
INCLINATION    = 62.7816
RA_OF_ASC_NODE = 217.3860
ARG_OF_PERICENTER = 349.5511
MEAN_ANOMALY   = 10.5034

EPHEMERIS_TYPE = 0
CLASSIFICATION_TYPE = U
NORAD_CAT_ID   = 20666
ELEMENT_SET_NO = 999
REV_AT_EPOCH   = 93980
BSTAR          = .14218331E-3
MEAN_MOTION_DOT = .1767E-4
MEAN_MOTION_DDOT = 0

CCSDS_OMM_VERS = 2.0
CREATION_DATE  = 
ORIGINATOR     = 

OBJECT_NAME    = SL-8 R/B
OBJECT_ID      = 1990-078B
CENTER_NAME    = EARTH
REF_FRAME      = TEME
TIME_SYSTEM    = UTC
MEAN_ELEMENT_THEORY = SGP/SGP4

EPOCH          = 2026-03-20T11:02:25.949184
MEAN_MOTION    = 14.89380797
ECCENTRICITY   = .03600366
INCLINATION    = 82.9008
RA_OF_ASC_NODE = 241.6196
ARG_OF_PERICENTER = 337.7231
MEAN_ANOMALY   = 20.8670

EPHEMERIS_TYPE = 0
CLASSIFICATION_TYPE = U
NORAD_CAT_ID   = 20775
ELEMENT_SET_NO = 999
REV_AT_EPOCH   = 81090
BSTAR          = .3194333E-3
MEAN_MOTION_DOT = .10813E-3
MEAN_MOTION_DDOT = 0

CCSDS_OMM_VERS = 2.0
CREATION_DATE  = 
ORIGINATOR     = 

OBJECT_NAME    = SL-8 R/B
OBJECT_ID      = 1991-006B
CENTER_NAME    = EARTH
REF_FRAME      = TEME
TIME_SYSTEM    = UTC
MEAN_ELEMENT_THEORY = SGP/SGP4

EPOCH          = 2026-03-20T12:14:00.354912
MEAN_MOTION    = 13.77495635
ECCENTRICITY   = .00224093
INCLINATION    = 82.9458
RA_OF_ASC_NODE = 162.0022
ARG_OF_PERICENTER = 8.6799
MEAN_ANOMALY   = 2.4075

EPHEMERIS_TYPE = 0
CLASSIFICATION_TYPE = U
NORAD_CAT_ID   = 21088
ELEMENT_SET_NO = 999
REV_AT_EPOCH   = 76556
BSTAR          = .70897911E-4
MEAN_MOTION_DOT = .86E-6
MEAN_MOTION_DDOT = 0

CCSDS_OMM_VERS = 2.0
CREATION_DATE  = 
ORIGINATOR     = 

OBJECT_NAME    = OKEAN-3
OBJECT_ID      = 1991-039A
CENTER_NAME    = EARTH
REF_FRAME      = TEME
TIME_SYSTEM    = UTC
MEAN_ELEMENT_THEORY = SGP/SGP4

EPOCH          = 2026-03-20T04:26:27.145824
MEAN_MOTION    = 15.04870461
ECCENTRICITY   = .00128592
INCLINATION    = 82.5188
RA_OF_ASC_NODE = 326.6770
ARG_OF_PERICENTER = 297.8178
MEAN_ANOMALY   = 62.1744

EPHEMERIS_TYPE = 0
CLASSIFICATION_TYPE = U
NORAD_CAT_ID   = 21397
ELEMENT_SET_NO = 999
REV_AT_EPOCH   = 86661
BSTAR          = .11452243E-3
MEAN_MOTION_DOT = .1649E-4
MEAN_MOTION_DDOT = 0

CCSDS_OMM_VERS = 2.0
CREATION_DATE  = 
ORIGINATOR     = 

OBJECT_NAME    = COSMOS 2151
OBJECT_ID      = 1991-042A
CENTER_NAME    = EARTH
REF_FRAME      = TEME
TIME_SYSTEM    = UTC
MEAN_ELEMENT_THEORY = SGP/SGP4

EPOCH          = 2026-03-20T13:20:28.591008
MEAN_MOTION    = 15.00148389
ECCENTRICITY   = .00132506
INCLINATION    = 82.4934
RA_OF_ASC_NODE = 73.1908
ARG_OF_PERICENTER = 30.1917
MEAN_ANOMALY   = 330.0068

EPHEMERIS_TYPE = 0
CLASSIFICATION_TYPE = U
NORAD_CAT_ID   = 21422
ELEMENT_SET_NO = 999
REV_AT_EPOCH   = 86482
BSTAR          = .13870085E-3
MEAN_MOTION_DOT = .176E-4
MEAN_MOTION_DDOT = 0

CCSDS_OMM_VERS = 2.0
CREATION_DATE  = 
ORIGINATOR     = 

OBJECT_NAME    = SL-14 R/B
OBJECT_ID      = 1991-042B
CENTER_NAME    = EARTH
REF_FRAME      = TEME
TIME_SYSTEM    = UTC
MEAN_ELEMENT_THEORY = SGP/SGP4

EPOCH          = 2026-03-20T15:06:16.622784
MEAN_MOTION    = 14.81840518
ECCENTRICITY   = .00165065
INCLINATION    = 82.4942
RA_OF_ASC_NODE = 209.9250
ARG_OF_PERICENTER = 200.5709
MEAN_ANOMALY   = 159.4842

EPHEMERIS_TYPE = 0
CLASSIFICATION_TYPE = U
NORAD_CAT_ID   = 21423
ELEMENT_SET_NO = 999
REV_AT_EPOCH   = 85469
BSTAR          = .55565374E-4
MEAN_MOTION_DOT = .463E-5
MEAN_MOTION_DDOT = 0

