COSMOS 2058             
1 20465U 90010A   26079.37366659  .00003440  00000+0  20194-3 0  9995
2 20465  82.4676  36.8994 0007944 306.0786  53.9708 15.11408789943850
SL-14 R/B               
1 20466U 90010B   26079.47832073  .00000392  00000+0  44652-4 0  9994
2 20466  82.4987 257.2514 0018327 263.9518  95.9609 14.83578063930082
SL-14 R/B               
1 20511U 90018B   26079.64154009  .00000447  00000+0  53067-4 0  9999
2 20511  82.5224 212.8541 0017427  58.8080 301.4839 14.82155847924207
HST                     
1 20580U 90037B   26079.38214405  .00005871  00000+0  19090-3 0  9997
2 20580  28.4724 327.0513 0001527 242.0595 117.9847 15.29639663774956
SL-16 R/B               
1 20625U 90046B   26079.23028156  .00000073  00000+0  62199-4 0  9995
2 20625  70.9954 275.7753 0016211 285.6681  74.2653 14.15012018849881
COSMOS 2084             
1 20663U 90055A   26079.61370360  .00001925  00000+0  14610-3 0  9997
2 20663  62.7889 298.3185 0015424 193.0258 167.0447 15.05707002937969
SL-6 R/B(2)             
1 20666U 90055D   26079.41180285  .00001767  00000+0  14218-3 0  9991
2 20666  62.7816 217.3860 0026481 349.5511  10.5034 15.03644129939805
SL-8 R/B                
1 20775U 90078B   26079.46002256  .00010813  00000+0  31943-3 0  9999
2 20775  82.9008 241.6196 0360036 337.7231  20.8670 14.89380797810900
SL-8 R/B                
1 21088U 91006B   26079.50972633  .00000086  00000+0  70898-4 0  9993
2 21088  82.9458 162.0022 0022409   8.6799   2.4075 13.77495635765563
OKEAN-3                 
1 21397U 91039A   26079.18503641  .00001649  00000+0  11452-3 0  9991
2 21397  82.5188 326.6770 0012859 297.8178  62.1744 15.04870461866611
COSMOS 2151             
1 21422U 91042A   26079.55588647  .00001760  00000+0  13870-3 0  9994
2 21422  82.4934  73.1908 0013250  30.1917 330.0068 15.00148389864820
SL-14 R/B               
1 21423U 91042B   26079.62935906  .00000463  00000+0  55565-4 0  9994
2 21423  82.4942 209.9250 0016506 200.5709 159.4842 14.81840518854696
